OBJECT_NAME,OBJECT_ID,EPOCH,MEAN_MOTION,ECCENTRICITY,INCLINATION,RA_OF_ASC_NODE,ARG_OF_PERICENTER,MEAN_ANOMALY,EPHEMERIS_TYPE,CLASSIFICATION_TYPE,NORAD_CAT_ID,ELEMENT_SET_NO,REV_AT_EPOCH,BSTAR,MEAN_MOTION_DOT,MEAN_MOTION_DDOT
KUIPER-00589,2026-151E,2026-07-09T06:00:02.000160,15.37339614,.00056164,51.8752,209.1308,124.4531,120.4181,0,U,69767,999,173,-.31359934E-3,-.12036E-3,0
KUIPER-00598,2026-151F,2026-07-09T06:00:02.000160,15.35549805,.00104067,51.8635,209.2140,145.9944,58.2506,0,U,69768,999,164,-.43069674E-3,-.15496E-3,0
KUIPER-00604,2026-151G,2026-07-09T06:00:02.000160,15.38160214,.00027651,51.8798,209.0814,91.7790,173.8148,0,U,69769,999,205,-.28145621E-3,-.11124E-3,0
KUIPER-00609,2026-151H,2026-07-09T06:00:02.000160,15.38557605,.00008985,51.8802,209.0584,41.3083,235.1418,0,U,69770,999,130,-.30232097E-3,-.12067E-3,0
KUIPER-00611,2026-151J,2026-07-09T06:00:02.000160,15.38370758,.00016474,51.8803,209.0658,90.6598,180.2807,0,U,69771,999,130,-.29096557E-3,-.11561E-3,0
KUIPER-00612,2026-151K,2026-07-09T06:00:02.000160,15.37859396,.00038066,51.8790,209.0989,98.9792,159.2150,0,U,69772,999,130,-.3088558E-3,-.12053E-3,0
KUIPER-00614,2026-151L,2026-07-09T06:00:02.000160,15.38073110,.00028285,51.8801,209.0841,106.8448,156.5982,0,U,69773,999,163,-.30380312E-3,-.11941E-3,0
KUIPER-00615,2026-151M,2026-07-09T06:00:02.000160,15.37155018,.00063187,51.8771,209.1384,127.3855,112.8270,0,U,69774,999,130,-.31638951E-3,-.12071E-3,0
KUIPER-00616,2026-151N,2026-07-09T06:00:02.000160,15.38310942,.0003251,51.8784,209.0848,104.8707,160.9455,0,U,69775,999,130,-.26254315E-3,-.10455E-3,0
KUIPER-00617,2026-151P,2026-07-09T06:00:02.000160,15.37692143,.00042034,51.8794,209.1028,116.3032,139.3325,0,U,69776,999,130,-.12125554E-3,-.4951E-4,0
KUIPER-00619,2026-151Q,2026-07-09T06:00:02.000160,15.38456766,.00016252,51.8803,209.0615,51.0926,222.8981,0,U,69777,999,130,-.22316949E-3,-.8987E-4,0
KUIPER-00621,2026-151R,2026-07-09T06:00:02.000160,15.38246917,.00021014,51.8794,209.0785,97.1047,170.7865,0,U,69778,999,187,-.26713757E-3,-.10607E-3,0
KUIPER-00622,2026-151S,2026-07-09T06:00:02.000160,15.36914935,.00069235,51.8730,209.1504,128.2297,107.5447,0,U,69779,999,173,-.30114201E-3,-.11424E-3,0
KUIPER-00623,2026-151T,2026-07-09T06:00:02.000160,15.37355787,.00051933,51.8776,209.1206,116.2865,132.3095,0,U,69780,999,185,-.30486712E-3,-.11717E-3,0
KUIPER-00626,2026-151U,2026-07-09T06:00:02.000160,15.35832641,.00100602,51.8713,209.1984,142.8938,69.3285,0,U,69781,999,209,.926517E-5,-.62E-6,0
KUIPER-00627,2026-151V,2026-07-09T06:00:02.000160,15.35534874,.00112181,51.8689,209.2113,147.1771,58.9228,0,U,69782,999,130,.29827716E-4,.658E-5,0
KUIPER-00629,2026-151W,2026-07-09T06:00:02.000160,15.36891362,.00075618,51.8741,209.1540,128.0677,105.5579,0,U,69783,999,142,-.32552663E-3,-.1231E-3,0
KUIPER-00631,2026-151X,2026-07-09T06:00:02.000160,15.36664950,.00081218,51.8709,209.1669,135.1626,92.6936,0,U,69784,999,130,-.32552534E-3,-.12224E-3,0
KUIPER-00634,2026-151Y,2026-07-09T06:00:02.000160,15.37656461,.00038693,51.8769,209.1113,117.6964,136.0251,0,U,69785,999,130,-.29461789E-3,-.11442E-3,0
KUIPER-00639,2026-151Z,2026-07-09T06:00:02.000160,15.36089484,.00096982,51.8684,209.1879,137.9028,79.8185,0,U,69786,999,130,-.35906245E-3,-.13206E-3,0
KUIPER-00641,2026-151AA,2026-07-09T06:00:02.000160,15.35342745,.00113103,51.8672,209.2075,145.2520,62.5623,0,U,69787,999,173,-.42856952E-3,-.15327E-3,0
KUIPER-00644,2026-151AB,2026-07-09T06:00:02.000160,15.36480865,.00087874,51.8734,209.1756,137.6671,85.5646,0,U,69788,999,203,-.34511056E-3,-.12863E-3,0
KUIPER-00646,2026-151AC,2026-07-09T06:00:02.000160,15.36211702,.00098193,51.8698,209.1851,139.1069,79.8016,0,U,69789,999,130,-.40797859E-3,-.15007E-3,0
KUIPER-00647,2026-151AD,2026-07-09T06:00:02.000160,15.35713213,.00104435,51.8660,209.2073,144.3483,63.5046,0,U,69790,999,187,-.29561368E-3,-.1082E-3,0
KUIPER-00662,2026-151AE,2026-07-09T06:00:02.000160,15.36578070,.00087621,51.8721,209.1711,132.7798,92.8316,0,U,69791,999,130,-.32434283E-3,-.12151E-3,0
LINK,2026-152A,2026-07-06T04:51:39.166560,15.64575315,.00230587,20.5939,36.4975,227.0468,132.8043,0,U,69792,999,44,.18927835E-2,.199079E-2,0
STARLINK-37520,2026-154A,2026-07-09T06:00:02.000160,16.03631618,.00006982,53.1607,323.3509,76.7949,337.2809,0,U,69819,999,171,-.22362625E-2,-.1448249E-1,.67841669E-3
STARLINK-37553,2026-154B,2026-07-09T06:00:02.000160,16.03768822,.0000803,53.1605,323.3480,76.4893,338.9376,0,U,69820,999,171,-.22241174E-2,-.145226E-1,.68294604E-3
STARLINK-37561,2026-154C,2026-07-09T06:00:02.000160,16.03884052,.00008699,53.1605,323.3453,69.0551,347.7394,0,U,69821,999,171,-.2167639E-2,-.14256E-1,.66100076E-3
