KUIPER-00589            
1 69767U 26151E   26190.25002315 -.00012036  00000+0 -31360-3 0  9995
2 69767  51.8752 209.1308 0005616 124.4531 120.4181 15.37339614  1736
KUIPER-00598            
1 69768U 26151F   26190.25002315 -.00015496  00000+0 -43070-3 0  9990
2 69768  51.8635 209.2140 0010406 145.9944  58.2506 15.35549805  1643
KUIPER-00604            
1 69769U 26151G   26190.25002315 -.00011124  00000+0 -28146-3 0  9992
2 69769  51.8798 209.0814 0002765  91.7790 173.8148 15.38160214  2054
KUIPER-00609            
1 69770U 26151H   26190.25002315 -.00012067  00000+0 -30232-3 0  9990
2 69770  51.8802 209.0584 0000898  41.3083 235.1418 15.38557605  1300
KUIPER-00611            
1 69771U 26151J   26190.25002315 -.00011561  00000+0 -29097-3 0  9996
2 69771  51.8803 209.0658 0001647  90.6598 180.2807 15.38370758  1309
KUIPER-00612            
1 69772U 26151K   26190.25002315 -.00012053  00000+0 -30886-3 0  9992
2 69772  51.8790 209.0989 0003806  98.9792 159.2150 15.37859396  1304
KUIPER-00614            
1 69773U 26151L   26190.25002315 -.00011941  00000+0 -30380-3 0  9997
2 69773  51.8801 209.0841 0002828 106.8448 156.5982 15.38073110  1637
KUIPER-00615            
1 69774U 26151M   26190.25002315 -.00012071  00000+0 -31639-3 0  9991
2 69774  51.8771 209.1384 0006318 127.3855 112.8270 15.37155018  1301
KUIPER-00616            
1 69775U 26151N   26190.25002315 -.00010455  00000+0 -26254-3 0  9993
2 69775  51.8784 209.0848 0003251 104.8707 160.9455 15.38310942  1308
KUIPER-00617            
1 69776U 26151P   26190.25002315 -.00004951  00000+0 -12126-3 0  9991
2 69776  51.8794 209.1028 0004203 116.3032 139.3325 15.37692143  1309
KUIPER-00619            
1 69777U 26151Q   26190.25002315 -.00008987  00000+0 -22317-3 0  9998
2 69777  51.8803 209.0615 0001625  51.0926 222.8981 15.38456766  1300
KUIPER-00621            
1 69778U 26151R   26190.25002315 -.00010607  00000+0 -26714-3 0  9996
2 69778  51.8794 209.0785 0002101  97.1047 170.7865 15.38246917  1872
KUIPER-00622            
1 69779U 26151S   26190.25002315 -.00011424  00000+0 -30114-3 0  9994
2 69779  51.8730 209.1504 0006923 128.2297 107.5447 15.36914935  1731
KUIPER-00623            
1 69780U 26151T   26190.25002315 -.00011717  00000+0 -30487-3 0  9994
2 69780  51.8776 209.1206 0005193 116.2865 132.3095 15.37355787  1851
KUIPER-00626            
1 69781U 26151U   26190.25002315 -.00000062  00000+0  92652-5 0  9999
2 69781  51.8713 209.1984 0010060 142.8938  69.3285 15.35832641  2095
KUIPER-00627            
1 69782U 26151V   26190.25002315  .00000658  00000+0  29828-4 0  9994
2 69782  51.8689 209.2113 0011218 147.1771  58.9228 15.35534874  1303
KUIPER-00629            
1 69783U 26151W   26190.25002315 -.00012310  00000+0 -32553-3 0  9993
2 69783  51.8741 209.1540 0007561 128.0677 105.5579 15.36891362  1425
KUIPER-00631            
1 69784U 26151X   26190.25002315 -.00012224  00000+0 -32553-3 0  9998
2 69784  51.8709 209.1669 0008121 135.1626  92.6936 15.36664950  1309
KUIPER-00634            
1 69785U 26151Y   26190.25002315 -.00011442  00000+0 -29462-3 0  9995
2 69785  51.8769 209.1113 0003869 117.6964 136.0251 15.37656461  1306
KUIPER-00639            
1 69786U 26151Z   26190.25002315 -.00013206  00000+0 -35906-3 0  9996
2 69786  51.8684 209.1879 0009698 137.9028  79.8185 15.36089484  1308
KUIPER-00641            
1 69787U 26151AA  26190.25002315 -.00015327  00000+0 -42857-3 0  9996
2 69787  51.8672 209.2075 0011310 145.2520  62.5623 15.35342745  1732
KUIPER-00644            
1 69788U 26151AB  26190.25002315 -.00012863  00000+0 -34511-3 0  9997
2 69788  51.8734 209.1756 0008787 137.6671  85.5646 15.36480865  2034
KUIPER-00646            
1 69789U 26151AC  26190.25002315 -.00015007  00000+0 -40798-3 0  9995
2 69789  51.8698 209.1851 0009819 139.1069  79.8016 15.36211702  1303
KUIPER-00647            
1 69790U 26151AD  26190.25002315 -.00010820  00000+0 -29561-3 0  9990
2 69790  51.8660 209.2073 0010443 144.3483  63.5046 15.35713213  1872
KUIPER-00662            
1 69791U 26151AE  26190.25002315 -.00012151  00000+0 -32434-3 0  9993
2 69791  51.8721 209.1711 0008762 132.7798  92.8316 15.36578070  1304
LINK                    
1 69792U 26152A   26187.20253665  .00199079  00000+0  18928-2 0  9996
2 69792  20.5939  36.4975 0023058 227.0468 132.8043 15.64575315   445
STARLINK-37520          
1 69819U 26154A   26190.25002315 -.01448249  67842-3 -22363-2 0  9999
2 69819  53.1607 323.3509 0000698  76.7949 337.2809 16.03631618  1713
STARLINK-37553          
1 69820U 26154B   26190.25002315 -.01452260  68295-3 -22241-2 0  9997
2 69820  53.1605 323.3480 0000803  76.4893 338.9376 16.03768822  1719
STARLINK-37561          
1 69821U 26154C   26190.25002315 -.01425600  66100-3 -21676-2 0  9990
2 69821  53.1605 323.3453 0000869  69.0551 347.7394 16.03884052  1713
